satname,norad_id,inclination_deg,eccentricity,mean_motion_rev_per_day,perigee_km,apogee_km,l1,l2
STARLINK-1493,45759,53.0546,0.0001605,15.06393777,546.1191090979464,548.3421521073706,1 45759U 20038AF  25337.25221773  .00002425  00000+0  18169-3 0  9992,2 45759  53.0546 289.5407 0001605  83.0878 277.0294 15.06393777301931
STARLINK-1494,45760,53.0539,0.0005628,15.54401806,400.0751371757806,407.708989089243,1 45760U 20038AG  25337.23095522  .00049168  00000+0  73854-3 0  9990,2 45760  53.0539 263.9503 0005628 106.5998 253.5630 15.54401806302302
STARLINK-1502,45764,53.0558,0.000158,15.06406824,546.0964416724028,548.2848452077305,1 45764U 20038AL  25337.28540257  .00013422  00000+0  91807-3 0  9991,2 45764  53.0558 289.3923 0001580  94.9026 265.2143 15.06406824301951
STARLINK-1470,45772,53.0524,0.000689,15.20145591,500.65830987626214,510.14382533342086,1 45772U 20038AU  25337.19976139  .00033256  00000+0  15254-2 0  9990,2 45772  53.0524 259.3600 0006890  47.6726 312.4852 15.20145591302368
STARLINK-1482,45773,53.054,0.0001263,15.06392668,546.3593551923886,548.108703914454,1 45773U 20038AV  25337.18402623  .00006146  00000+0  43122-3 0  9996,2 45773  53.0540 269.8464 0001263  88.2918 271.8215 15.06392668302212
STARLINK-1496,45780,53.0544,0.0001121,15.06387152,546.4745995001331,548.0272714752691,1 45780U 20038BC  25337.21717226 -.00016104  00000+0 -10651-2 0  9993,2 45780  53.0544 269.6975 0001121  73.7220 286.3892 15.06387152302200
STARLINK-1497,45781,53.0355,0.0006749,15.64379492,370.46621292942655,379.5816295409095,1 45781U 20038BD  25337.76718351  .00184559  00000+0  18523-2 0  9998,2 45781  53.0355 200.0596 0006749  89.1920 270.9868 15.64379492303247
STARLINK-1510,45784,53.0239,0.0002412,15.85350655,313.72309342073004,316.95202554822663,1 45784U 20038BG  25337.83335647  .00360557  00000+0  14218-2 0  9993,2 45784  53.0239 171.4662 0002412 196.2353  73.9928 15.85350655  5968
STARLINK-1513,45786,53.0554,0.0001579,15.06391687,546.1435196428365,548.3305527634702,1 45786U 20038BJ  25337.24668418 -.00000534  00000+0 -16984-4 0  9997,2 45786  53.0554 269.5686 0001579  90.9736 269.1434 15.06391687302226
STARLINK-1522,46027,53.0541,0.0001416,15.06405304,546.2146749359299,548.1759290438531,1 46027U 20055A   25337.82445470  .00002434  00000+0  18222-3 0  9995,2 46027  53.0541 196.9717 0001416  96.1187 263.9964 15.06405304294432
STARLINK-1523,46028,53.055,0.0001608,15.06411007,546.0642326504039,548.2914138975684,1 46028U 20055B   25337.77284420  .00001500  00000+0  11951-3 0  9991,2 46028  53.0550 197.2067 0001608  89.9507 270.1667 15.06411007294442
STARLINK-1526,46029,53.0551,0.0001597,15.06407737,546.0818708713159,548.2938196268879,1 46029U 20055C   25337.76547591  .00000863  00000+0  76800-4 0  9998,2 46029  53.0551 197.2335 0001597  97.5797 262.5373 15.06407737294438
STARLINK-1555,46032,53.0539,0.0001515,15.06400321,546.161383962206,548.2597642771643,1 46032U 20055F   25337.35265509  .00000321  00000+0  40476-4 0  9992,2 46032  53.0539 199.0900 0001515  89.6230 270.4932 15.06400321294374
STARLINK-1556,46033,53.0549,0.000171,15.06395644,546.0406715967192,548.40914536942,1 46033U 20055G   25337.00249601  .00000467  00000+0  50288-4 0  9993,2 46033  53.0549 200.6629 0001710  87.4034 272.7151 15.06395644294298
STARLINK-1557,46034,53.0549,0.0001571,15.06394285,546.141098635373,548.3170486557119,1 46034U 20055H   25337.00617782  .00000063  00000+0  23130-4 0  9991,2 46034  53.0549 200.6465 0001571  77.9136 282.2029 15.06394285294299
STARLINK-1558,46035,53.0562,0.0001567,15.06444724,545.9893080706725,548.1596693512338,1 46035U 20055J   25337.34523992  .00006253  00000+0  43779-3 0  9995,2 46035  53.0562 199.1258 0001567  79.0940 281.0225 15.06444724294376
STARLINK-1560,46036,53.0544,0.0001597,15.06396652,546.1158392916732,548.3277988984919,1 46036U 20055K   25337.33054271 -.00000071  00000+0  14169-4 0  9999,2 46036  53.0544 199.1951 0001597  93.0329 267.0843 15.06396652294373
STARLINK-1567,46038,53.0542,0.0001556,15.06409413,546.1051288525641,548.2602883458812,1 46038U 20055M   25337.80602233  .00003033  00000+0  22234-3 0  9991,2 46038  53.0542 197.0571 0001556  87.8953 272.2215 15.06409413294435
STARLINK-1569,46039,53.0543,0.0001523,15.06403969,546.1446648188885,548.2541222843656,1 46039U 20055N   25337.81339339  .00000153  00000+0  29184-4 0  9999,2 46039  53.0543 197.0244 0001523  91.2559 268.8605 15.06403969294433
STARLINK-1582,46043,53.0544,0.0001438,15.06406567,546.1955688738235,548.1872933306095,1 46043U 20055S   25337.82076537  .00001476  00000+0  11798-3 0  9993,2 46043  53.0544 196.9888 0001438  93.0292 267.0862 15.06406567294433
STARLINK-1591,46045,53.0541,0.0001405,15.06409079,546.2107246877658,548.1567398135294,1 46045U 20055U   25337.78021755  .00001691  00000+0  13236-3 0  9990,2 46045  53.0541 197.1698 0001405  80.2863 279.8285 15.06409079294419
STARLINK-1524,46047,53.0531,0.000152,15.06398542,546.1633728418628,548.2686801619193,1 46047U 20055W   25337.73322685  .00000203  00000+0  32494-4 0  9999,2 46047  53.0531 187.3813 0001520 106.0452 254.0705 15.06398542294569
STARLINK-1527,46048,53.054,0.000154,15.06407736,546.1213482872909,548.2543483405707,1 46048U 20055X   25337.86222602  .00000704  00000+0  66164-4 0  9999,2 46048  53.0540 186.8021 0001540  97.1143 263.0022 15.06407736294562
STARLINK-1540,46051,53.0545,0.0001962,15.06398661,545.8569075912246,548.5744159757078,1 46051U 20055AA  25337.82905444  .00000059  00000+0  22847-4 0  9994,2 46051  53.0545 186.9527 0001962 116.4874 243.6316 15.06398661294596
STARLINK-1541,46052,53.0535,0.0001238,15.06410236,546.3228319825166,548.0375405178311,1 46052U 20055AB  25337.81430529  .00001040  00000+0  88685-4 0  9994,2 46052  53.0535 187.0170 0001238  87.4097 272.7034 15.06410236294551
STARLINK-1543,46053,53.0536,0.0001547,15.06411206,546.1058672663339,548.2485594839518,1 46053U 20055AC  25337.81799728  .00002044  00000+0  15603-3 0  9998,2 46053  53.0536 187.0002 0001547  90.9087 269.2080 15.06411206294581
STARLINK-1548,46054,53.0539,0.0001425,15.06399136,546.2273434282533,548.2010685219557,1 46054U 20055AD  25337.82537992  .00001268  00000+0  10402-3 0  9992,2 46054  53.0539 186.9689 0001425  91.0352 269.0800 15.06399136294581
STARLINK-1554,46055,53.0529,0.0001512,15.06418176,546.1087473970474,548.2029559553939,1 46055U 20055AE  25337.74428541  .00003781  00000+0  27247-3 0  9990,2 46055  53.0529 187.3327 0001512  92.6634 267.4528 15.06418176294576
